LEMUR-2-NOOBNOOB        
1 47538U 21006DY  23269.74983773  .00053907  00000+0  14010-2 0  9997
2 47538  97.3812 330.2516 0007538  81.4817 278.7282 15.38734143148379
LEMUR-2-AMANDA-SVANTE   
1 48269U 21034B   23270.15662841  .00011175  00000+0  10707-2 0  9997
2 48269  97.6988 335.6414 0002481 358.3932   1.7279 14.93316673131028
LEMUR-2-SPECIAL-K       
1 48273U 21034F   23270.18237705  .00005790  00000+0  55707-3 0  9998
2 48273  97.6975 335.7513 0002716 352.7009   7.4171 14.93363781131042
LEMUR-2-JACKSON         
1 48885U 21059G   23269.85404715  .00091450  00000+0  18549-2 0  9993
2 48885  97.5963  51.7318 0005441 257.8786 102.1853 15.46024659125130
LEMUR-2-ANNABANANA      
1 48923U 21059AW  23269.94771183  .00045220  00000+0  88605-3 0  9997
2 48923  97.5898  53.4413 0005167 243.7737 116.2981 15.47236244125291
LEMUR-2-JOHN-TREIRES    
1 48925U 21059AY  23270.36678378  .00148583  00000+0  18068-2 0  9990
2 48925  97.6062  56.9366 0007191 242.1946 117.8581 15.60028670125498
LEMUR-2-AC-CUBED        
1 48927U 21059BA  23270.05205663  .00075502  00000+0  15223-2 0  9991
2 48927  97.6050  53.6623 0008911 249.4158 110.6135 15.46239347125274
LEMUR-2-MERIMA          
1 48929U 21059BC  23270.37949036  .00088042  00000+0  15054-2 0  9992
2 48929  97.5905  54.7415 0008434 248.2626 111.7728 15.50929764125412
LEMUR-2-RAMONAMAE       
1 51021U 22002AP  23269.75802047  .00037958  00000+0  94589-3 0  9999
2 51021  97.4328 340.1825 0004151 227.1649 132.9249 15.40124749 94481
LEMUR-2-KING-JULIEN     
1 51022U 22002AQ  23270.42379413  .00097037  00000+0  21397-2 0  9992
2 51022  97.4307 340.5002 0005055 216.1511 143.9396 15.43536773 94572
LEMUR-2-ROHOVITHSA      
1 51036U 22002BE  23270.16955853  .00038723  00000+0  13633-2 0  9997
2 51036  97.4309 336.9121 0005690 237.6742 122.3947 15.29196501 94308
LEMUR-2-MIRIWARI        
1 51054U 22002BY  23270.14722366  .00047479  00000+0  16209-2 0  9996
2 51054  97.4299 337.0179 0005435 233.0293 127.0451 15.30152369 94318
LEMUR-2-DJIRANG         
1 51058U 22002CC  23270.40974779  .00032447  00000+0  11106-2 0  9996
2 51058  97.4274 337.1013 0005332 230.7726 129.3042 15.30156363 94357
LEMUR-2-TENNYSONLILY    
1 52732U 22057A   23269.99192963  .00084898  00000+0  22442-2 0  9997
2 52732  97.5591  30.1080 0004522 355.0508   5.0691 15.38087009 74359
LEMUR-2-VANDENDRIES     
1 52733U 22057B   23270.33072095  .00035930  00000+0  12510-2 0  9999
2 52733  97.5411  27.7196 0004549   4.7596 355.3687 15.29582754 74280
LEMUR-2-KAREN B         
1 52736U 22057E   23269.99284426  .00101804  00000+0  24596-2 0  9996
2 52736  97.5442  29.8500 0003929 337.3640  22.7432 15.40772532 74398
LEMUR-2-HANCOM-1        
1 52740U 22057J   23269.84599038  .00047589  00000+0  16555-2 0  9998
2 52740  97.5612  28.6314 0007255   0.8822 359.2430 15.29528489 74227
LEMUR-2-MIMI1307        
1 52769U 22057AP  23269.87066562  .00084104  00000+0  29044-2 0  9994
2 52769  97.5603  28.8236 0008292 331.6989  28.3800 15.29579843 74241
LEMUR-2-PHILARI         
1 55013U 23001E   23270.06427285  .00048205  00000+0  19497-2 0  9998
2 55013  97.4656 329.0743 0007680  27.9796 332.1853 15.24529158 40575
LEMUR-2-DISCLAIMER      
1 55014U 23001F   23270.09894579  .00043245  00000+0  17882-2 0  9991
2 55014  97.4702 329.1720 0008957  32.6633 327.5156 15.23802171 40577
LEMUR-2-STEVEALBERS     
1 55017U 23001J   23270.08207584  .00041629  00000+0  17472-2 0  9996
2 55017  97.4638 328.8472 0008380  29.4113 330.7594 15.23312868 40565
LEMUR-2-EMMACULATE      
1 55037U 23001AE  23270.09675190  .00051169  00000+0  18924-2 0  9994
2 55037  97.4706 330.1433 0011422  12.4635 347.6884 15.27462995 40636
LEMUR-2-MMOLO           
1 55038U 23001AF  23269.71677171  .00014102  00000+0  54756-3 0  9993
2 55038  97.4725 329.9403 0013502  15.9359 344.2302 15.26112366 40588
LEMUR-2-FUENTETAJA-01   
1 55088U 23001CH  23270.14534463  .00040731  00000+0  16414-2 0  9998
2 55088  97.4735 329.8692 0012146  11.7231 348.4287 15.24654523 40615
LEMUR-2-ONREFLECTION    
1 56182U 23054E   23269.95730105  .00027347  00000+0  10480-2 0  9995
2 56182  97.3832 163.4686 0009640  46.9261 313.2783 15.26447799 25689
LEMUR-2-SPACEGUS        
1 56187U 23054K   23269.70855753  .00033008  00000+0  12391-2 0  9994
2 56187  97.3837 163.3555 0009360  37.9874 322.2023 15.27095075 25653
LEMUR-2-ROMEO-N-LEO     
1 56206U 23054AE  23269.68314368  .00079721  00000+0  24347-2 0  9991
2 56206  97.3808 164.1057 0011090  24.0267 336.1491 15.33533560 25707
LEMUR-2-EMBRIONOVIS     
1 56970U 23084AQ  23269.80625462  .00008848  00000+0  47914-3 0  9994
2 56970  97.5266  25.1461 0015239 205.0683 154.9811 15.14760168 16035
LEMUR-2-NAZIYAH         
1 56974U 23084AU  23270.00456947  .00035614  00000+0  18099-2 0  9994
2 56974  97.5160  25.3611 0014401 196.0377 164.0402 15.16687079 16073
LEMUR-2-AADAM-ALIYAH    
1 56977U 23084AX  23270.06896808  .00020333  00000+0  10371-2 0  9994
2 56977  97.5189  25.4579 0014778 197.9505 162.1207 15.16676547 16082
LEMUR-2-MANO            
1 57390U 23100E   23269.93651758  .00014601  00000+0  12007-2 0  9999
2 57390  99.4679  50.3144 0016376  62.4047 297.8831 14.99181351 10611
LEMUR-2-DEVERILL-M-T    
1 57391U 23100F   23269.98219241  .00013669  00000+0  11145-2 0  9997
2 57391  99.4677  50.4638 0012883  59.6388 300.6101 14.99570249 10626
